{
  "type": "FeatureCollection",
  "features": [
    {
      "type": "Feature",
      "properties": {
        "norad_id": 15362,
        "name": "NOVA 3",
        "group": "nnss",
        "lat": 85.26659927065391,
        "lon": -97.89733177373958,
        "alt_km": 1184.20620923978,
        "timestamp": "2025-12-20T11:30:28.645753+00:00",
        "meta_object_name": "NOVA 3",
        "meta_object_id": "1984-110A",
        "meta_epoch": "2025-12-20T01:01:15.341952",
        "meta_mean_motion": 13.23045356,
        "meta_eccentricity": 0.003001,
        "meta_inclination": 90.1222,
        "meta_ra_of_asc_node": 80.6207,
        "meta_arg_of_pericenter": 310.9918,
        "meta_mean_anomaly": 223.5164,
        "meta_ephemeris_type": 0,
        "meta_classification_type": "U",
        "meta_norad_cat_id": 15362,
        "meta_element_set_no": 999,
        "meta_rev_at_epoch": 98795,
        "meta_bstar": 9.161e-05,
        "meta_mean_motion_dot": 4.7e-07,
        "meta_mean_motion_ddot": 0,
        "tle_line1": "1 15362U 84110A   25354.04253868  .00000047  00000+0  91610-4 0  9997",
        "tle_line2": "2 15362  90.1222  80.6207 0030010 310.9918 223.5164 13.23045356987956"
      },
      "geometry": {
        "type": "Point",
        "coordinates": [
          -97.89733177373958,
          85.26659927065391
        ]
      }
    },
    {
      "type": "Feature",
      "properties": {
        "norad_id": 15935,
        "name": "OSCAR 30",
        "group": "nnss",
        "lat": 0.19594967244356326,
        "lon": -80.02571343990009,
        "alt_km": 1183.5523600059078,
        "timestamp": "2025-12-20T11:30:28.645764+00:00",
        "meta_object_name": "OSCAR 30",
        "meta_object_id": "1985-066A",
        "meta_epoch": "2025-12-20T02:29:33.840960",
        "meta_mean_motion": 13.36079328,
        "meta_eccentricity": 0.01692,
        "meta_inclination": 90.1655,
        "meta_ra_of_asc_node": 99.9676,
        "meta_arg_of_pericenter": 63.3487,
        "meta_mean_anomaly": 108.9124,
        "meta_ephemeris_type": 0,
        "meta_classification_type": "U",
        "meta_norad_cat_id": 15935,
        "meta_element_set_no": 999,
        "meta_rev_at_epoch": 96551,
        "meta_bstar": 0.00010067,
        "meta_mean_motion_dot": 6.6e-07,
        "meta_mean_motion_ddot": 0,
        "tle_line1": "1 15935U 85066A   25354.10386390  .00000066  00000+0  10067-3 0  9995",
        "tle_line2": "2 15935  90.1655  99.9676 0169200  63.3487 108.9124 13.36079328965519"
      },
      "geometry": {
        "type": "Point",
        "coordinates": [
          -80.02571343990009,
          0.19594967244356326
        ]
      }
    },
    {
      "type": "Feature",
      "properties": {
        "norad_id": 15936,
        "name": "OSCAR 24",
        "group": "nnss",
        "lat": -69.35524569053047,
        "lon": -88.03340839414831,
        "alt_km": 1259.631980237872,
        "timestamp": "2025-12-20T11:30:28.645774+00:00",
        "meta_object_name": "OSCAR 24",
        "meta_object_id": "1985-066B",
        "meta_epoch": "2025-12-20T04:55:15.563136",
        "meta_mean_motion": 13.35936745,
        "meta_eccentricity": 0.0170324,
        "meta_inclination": 90.1791,
        "meta_ra_of_asc_node": 92.4374,
        "meta_arg_of_pericenter": 69.504,
        "meta_mean_anomaly": 300.6372,
        "meta_ephemeris_type": 0,
        "meta_classification_type": "U",
        "meta_norad_cat_id": 15936,
        "meta_element_set_no": 999,
        "meta_rev_at_epoch": 96743,
        "meta_bstar": 9.816e-05,
        "meta_mean_motion_dot": 6.4e-07,
        "meta_mean_motion_ddot": 0,
        "tle_line1": "1 15936U 85066B   25354.20504124  .00000064  00000+0  98160-4 0  9993",
        "tle_line2": "2 15936  90.1791  92.4374 0170324  69.5040 300.6372 13.35936745967439"
      },
      "geometry": {
        "type": "Point",
        "coordinates": [
          -88.03340839414831,
          -69.35524569053047
        ]
      }
    },
    {
      "type": "Feature",
      "properties": {
        "norad_id": 17070,
        "name": "POLAR BEAR",
        "group": "nnss",
        "lat": 80.6548134317234,
        "lon": 1.1342913309629714,
        "alt_km": 943.1289863240481,
        "timestamp": "2025-12-20T11:30:28.645785+00:00",
        "meta_object_name": "POLAR BEAR",
        "meta_object_id": "1986-088A",
        "meta_epoch": "2025-12-20T01:20:19.536288",
        "meta_mean_motion": 13.75252273,
        "meta_eccentricity": 0.0041263,
        "meta_inclination": 89.617,
        "meta_ra_of_asc_node": 183.4808,
        "meta_arg_of_pericenter": 98.1805,
        "meta_mean_anomaly": 64.6168,
        "meta_ephemeris_type": 0,
        "meta_classification_type": "U",
        "meta_norad_cat_id": 17070,
        "meta_element_set_no": 999,
        "meta_rev_at_epoch": 96079,
        "meta_bstar": 9.2171e-05,
        "meta_mean_motion_dot": 1e-06,
        "meta_mean_motion_ddot": 0,
        "tle_line1": "1 17070U 86088A   25354.05578167  .00000100  00000+0  92171-4 0  9997",
        "tle_line2": "2 17070  89.6170 183.4808 0041263  98.1805  64.6168 13.75252273960796"
      },
      "geometry": {
        "type": "Point",
        "coordinates": [
          1.1342913309629714,
          80.6548134317234
        ]
      }
    },
    {
      "type": "Feature",
      "properties": {
        "norad_id": 18361,
        "name": "OSCAR 27",
        "group": "nnss",
        "lat": -53.13339449507127,
        "lon": -100.93732598218776,
        "alt_km": 1032.0037019735828,
        "timestamp": "2025-12-20T11:30:28.645795+00:00",
        "meta_object_name": "OSCAR 27",
        "meta_object_id": "1987-080A",
        "meta_epoch": "2025-12-20T04:59:48.117120",
        "meta_mean_motion": 13.44908124,
        "meta_eccentricity": 0.0103519,
        "meta_inclination": 90.3741,
        "meta_ra_of_asc_node": 79.5517,
        "meta_arg_of_pericenter": 202.253,
        "meta_mean_anomaly": 157.4109,
        "meta_ephemeris_type": 0,
        "meta_classification_type": "U",
        "meta_norad_cat_id": 18361,
        "meta_element_set_no": 999,
        "meta_rev_at_epoch": 87657,
        "meta_bstar": 0.00014474,
        "meta_mean_motion_dot": 9.6e-07,
        "meta_mean_motion_ddot": 0,
        "tle_line1": "1 18361U 87080A   25354.20819580  .00000096  00000+0  14474-3 0  9991",
        "tle_line2": "2 18361  90.3741  79.5517 0103519 202.2530 157.4109 13.44908124876578"
      },
      "geometry": {
        "type": "Point",
        "coordinates": [
          -100.93732598218776,
          -53.13339449507127
        ]
      }
    },
    {
      "type": "Feature",
      "properties": {
        "norad_id": 18362,
        "name": "OSCAR 29",
        "group": "nnss",
        "lat": -52.108031881730874,
        "lon": -100.46092760364853,
        "alt_km": 1022.3944399468937,
        "timestamp": "2025-12-20T11:30:28.645805+00:00",
        "meta_object_name": "OSCAR 29",
        "meta_object_id": "1987-080B",
        "meta_epoch": "2025-12-20T05:08:03.659136",
        "meta_mean_motion": 13.44449616,
        "meta_eccentricity": 0.0104376,
        "meta_inclination": 90.3751,
        "meta_ra_of_asc_node": 80.0114,
        "meta_arg_of_pericenter": 225.4939,
        "meta_mean_anomaly": 161.7997,
        "meta_ephemeris_type": 0,
        "meta_classification_type": "U",
        "meta_norad_cat_id": 18362,
        "meta_element_set_no": 999,
        "meta_rev_at_epoch": 87610,
        "meta_bstar": 0.00012395,
        "meta_mean_motion_dot": 8.2e-07,
        "meta_mean_motion_ddot": 0,
        "tle_line1": "1 18362U 87080B   25354.21393124  .00000082  00000+0  12395-3 0  9999",
        "tle_line2": "2 18362  90.3751  80.0114 0104376 225.4939 161.7997 13.44449616876100"
      },
      "geometry": {
        "type": "Point",
        "coordinates": [
          -100.46092760364853,
          -52.108031881730874
        ]
      }
    },
    {
      "type": "Feature",
      "properties": {
        "norad_id": 19070,
        "name": "OSCAR 23",
        "group": "nnss",
        "lat": -85.71939083137205,
        "lon": -167.65465672274442,
        "alt_km": 1202.6845403589314,
        "timestamp": "2025-12-20T11:30:28.645815+00:00",
        "meta_object_name": "OSCAR 23",
        "meta_object_id": "1988-033A",
        "meta_epoch": "2025-12-20T01:17:13.826400",
        "meta_mean_motion": 13.27788394,
        "meta_eccentricity": 0.0190135,
        "meta_inclination": 90.3204,
        "meta_ra_of_asc_node": 16.6192,
        "meta_arg_of_pericenter": 159.6147,
        "meta_mean_anomaly": 229.5476,
        "meta_ephemeris_type": 0,
        "meta_classification_type": "U",
        "meta_norad_cat_id": 19070,
        "meta_element_set_no": 999,
        "meta_rev_at_epoch": 82350,
        "meta_bstar": 0.00018124,
        "meta_mean_motion_dot": 9.9e-07,
        "meta_mean_motion_ddot": 0,
        "tle_line1": "1 19070U 88033A   25354.05363225  .00000099  00000+0  18124-3 0  9990",
        "tle_line2": "2 19070  90.3204  16.6192 0190135 159.6147 229.5476 13.27788394823509"
      },
      "geometry": {
        "type": "Point",
        "coordinates": [
          -167.65465672274442,
          -85.71939083137205
        ]
      }
    }
  ]
}